     2.10           G: GLONASS NAV DATA                     RINEX VERSION / TYPE
teqc  2015Jun23                         20220720 01:25:45UTCPGM / RUN BY / DATE
Linux 2.4.21-27.ELsmp|Opteron|gcc -static|Linux x86_64|=+   COMMENT
  2022     7     9   -0.000000000000D+00                    CORR TO SYSTEM TIME
                                                            END OF HEADER
19 22  7 10  6 45  0.0-1.957584172487D-04-9.094947017729D-13 2.340000000000D+04
   -1.261843115234D+04-2.017883300781D+00 1.862645149231D-09 0.000000000000D+00
    1.433572460938D+04 1.158399581909D+00-0.000000000000D+00 3.000000000000D+00
    1.689700488281D+04-2.489081382751D+00-9.313225746155D-10 0.000000000000D+00
 6 22  7 10  6 45  0.0-5.832221359015D-05-1.818989403546D-12 2.409000000000D+04
    7.450925292969D+03 8.145332336426D-02 9.313225746155D-10 0.000000000000D+00
    1.843291894531D+04 2.189157485962D+00-0.000000000000D+00-4.000000000000D+00
   -1.600161669922D+04 2.559108734131D+00 2.793967723846D-09 0.000000000000D+00
 9 22  7 10  7 15  0.0 6.497465074062D-05 1.818989403546D-12 2.520000000000D+04
    1.636968896484D+04-1.643934249878D+00 1.862645149231D-09 0.000000000000D+00
    1.426326074219D+04-8.018598556519D-01 0.000000000000D+00-2.000000000000D+00
   -1.330293408203D+04-2.885158538818D+00 3.725290298462D-09 0.000000000000D+00
 4 22  7 10  7 15  0.0 1.501105725765D-04 1.818989403546D-12 2.520000000000D+04
   -8.994054687500D+03-1.788768768311D-01 1.862645149231D-09 0.000000000000D+00
    1.094515869141D+04-2.897679328918D+00 0.000000000000D+00 6.000000000000D+00
    2.124355322266D+04 1.418272972107D+00-1.862645149231D-09 0.000000000000D+00
 5 22  7 10  7 15  0.0 9.598955512047D-05 9.094947017729D-13 2.520000000000D+04
   -2.243757812500D+03 6.884384155273D-02 2.793967723846D-09 0.000000000000D+00
    2.373449951172D+04-1.256518363953D+00 0.000000000000D+00 1.000000000000D+00
    9.115493652344D+03 3.290798187256D+00 0.000000000000D+00 0.000000000000D+00
 6 22  7 10  7 15  0.0-5.832593888044D-05-1.818989403546D-12 2.520000000000D+04
    7.832386718750D+03 3.080320358276D-01 1.862645149231D-09 0.000000000000D+00
    2.173848291016D+04 1.455188751221D+00-0.000000000000D+00-4.000000000000D+00
   -1.083698583984D+04 3.142173767090D+00 2.793967723846D-09 0.000000000000D+00
18 22  7 10  7 15  0.0 1.230863854289D-04 9.094947017729D-13 2.520000000000D+04
   -2.168758691406D+04 5.453577041626D-01-9.313225746155D-10 0.000000000000D+00
    1.297997607422D+04-8.256721496582D-02-2.793967723846D-09-3.000000000000D+00
   -3.612640136719D+03-3.559221267700D+00-9.313225746155D-10 0.000000000000D+00
19 22  7 10  7 15  0.0-1.957612112164D-04-9.094947017729D-13 2.520000000000D+04
   -1.556258398438D+04-1.240717887878D+00 9.313225746155D-10 0.000000000000D+00
    1.638219628906D+04 1.069829940796D+00-9.313225746155D-10 3.000000000000D+00
    1.182077148438D+04-3.114518165588D+00-9.313225746155D-10 0.000000000000D+00
 9 22  7 10  7 45  0.0 6.497651338577D-05 1.818989403546D-12 2.700000000000D+04
    1.275625878906D+04-2.347488403320D+00 9.313225746155D-10 0.000000000000D+00
    1.284622167969D+04-7.336711883545D-01-0.000000000000D+00-2.000000000000D+00
   -1.791184912109D+04-2.202503204346D+00 3.725290298462D-09 0.000000000000D+00
 6 22  7 10  7 45  0.0-5.832873284817D-05-1.818989403546D-12 2.700000000000D+04
    8.422169433594D+03 3.065729141235D-01 2.793967723846D-09 0.000000000000D+00
    2.360051708984D+04 6.033239364624D-01-0.000000000000D+00-4.000000000000D+00
   -4.835688964844D+03 3.482706069946D+00 1.862645149231D-09 0.000000000000D+00
 5 22  7 10  7 45  0.0 9.599141776562D-05 9.094947017729D-13 2.700000000000D+04
   -2.409777832031D+03-2.842884063721D-01 2.793967723846D-09 0.000000000000D+00
    2.078969042969D+04-1.983446121216D+00-0.000000000000D+00 1.000000000000D+00
    1.461076367188D+04 2.775496482849D+00-0.000000000000D+00 0.000000000000D+00
18 22  7 10  7 45  0.0 1.230891793966D-04 9.094947017729D-13 2.700000000000D+04
   -2.013235302734D+04 1.145338058472D+00-2.793967723846D-09 0.000000000000D+00
    1.226327441406D+04-7.361211776733D-01-2.793967723846D-09-3.000000000000D+00
   -9.797356933594D+03-3.268154144287D+00-0.000000000000D+00 0.000000000000D+00
19 22  7 10  7 45  0.0-1.957640051842D-04-9.094947017729D-13 2.700000000000D+04
   -1.707548193359D+04-4.476137161255D-01 0.000000000000D+00 0.000000000000D+00
    1.802282910156D+04 7.090644836426D-01-1.862645149231D-09 3.000000000000D+00
    5.829747558594D+03-3.498906135559D+00-9.313225746155D-10 0.000000000000D+00
20 22  7 10  7 45  0.0-7.430464029312D-05-0.000000000000D+00 2.790000000000D+04
   -1.706572265625D+03-2.157328605652D+00 2.793967723846D-09 0.000000000000D+00
    1.389397851562D+04 1.978756904602D+00 0.000000000000D+00 2.000000000000D+00
    2.133297607422D+04-1.457835197449D+00-9.313225746155D-10 0.000000000000D+00
 7 22  7 10  7 45  0.0 3.763288259506D-05 0.000000000000D+00 2.811000000000D+04
    1.195995654297D+04 6.711883544922D-01 9.313225746155D-10 0.000000000000D+00
    1.206044726562D+04 2.524769783020D+00-0.000000000000D+00 5.000000000000D+00
   -1.900986621094D+04 2.015533447266D+00 2.793967723846D-09 0.000000000000D+00
 7 22  7 10  8 15  0.0 3.763381391764D-05 0.000000000000D+00 2.880000000000D+04
    1.333864550781D+04 8.233003616333D-01 9.313225746155D-10 0.000000000000D+00
    1.602107519531D+04 1.847088813782D+00-0.000000000000D+00 5.000000000000D+00
   -1.469296289062D+04 2.749688148499D+00 2.793967723846D-09 0.000000000000D+00
 6 22  7 10  8 15  0.0-5.833245813847D-05-1.818989403546D-12 2.880000000000D+04
    8.788680664062D+03 6.101894378662D-02 2.793967723846D-09 0.000000000000D+00
    2.390800537109D+04-2.526607513428D-01-0.000000000000D+00-4.000000000000D+00
    1.539002441406D+03 3.554348945618D+00 1.862645149231D-09 0.000000000000D+00
 5 22  7 10  8 15  0.0 9.599234908819D-05 9.094947017729D-13 2.880000000000D+04
   -3.354216308594D+03-7.815027236938D-01 2.793967723846D-09 0.000000000000D+00
    1.673422949219D+04-2.478051185608D+00-0.000000000000D+00 1.000000000000D+00
    1.897847558594D+04 2.046071052551D+00-9.313225746155D-10 0.000000000000D+00
18 22  7 10  8 15  0.0 1.230919733644D-04 9.094947017729D-13 2.880000000000D+04
   -1.771649707031D+04 1.493238449097D+00-3.725290298462D-09 0.000000000000D+00
    1.028105224609D+04-1.470547676086D+00-2.793967723846D-09-3.000000000000D+00
   -1.522620849609D+04-2.724763870239D+00-0.000000000000D+00 0.000000000000D+00
19 22  7 10  8 15  0.0-1.957667991519D-04-9.094947017729D-13 2.880000000000D+04
   -1.723427490234D+04 2.457141876221D-01-9.313225746155D-10 0.000000000000D+00
    1.879047363281D+04 1.091489791870D-01-2.793967723846D-09 3.000000000000D+00
   -6.123974609375D+02-3.612516403198D+00-9.313225746155D-10 0.000000000000D+00
20 22  7 10  8 15  0.0-7.430557161570D-05-0.000000000000D+00 2.880000000000D+04
   -5.031904296875D+03-1.520676612854D+00 1.862645149231D-09 0.000000000000D+00
    1.746110058594D+04 1.936802864075D+00-9.313225746155D-10 2.000000000000D+00
    1.791902294922D+04-2.310777664185D+00-9.313225746155D-10 0.000000000000D+00
 9 22  7 10  8 15  0.0 6.497930735350D-05 1.818989403546D-12 2.988000000000D+04
    8.032549804688D+03-2.862271308899D+00-0.000000000000D+00 0.000000000000D+00
    1.174639013672D+04-4.594678878784D-01-9.313225746155D-10-2.000000000000D+00
   -2.112938134766D+04-1.349353790283D+00 2.793967723846D-09 0.000000000000D+00
 7 22  7 10  8 45  0.0 3.763474524021D-05 0.000000000000D+00 3.060000000000D+04
    1.477665966797D+04 7.315750122070D-01 1.862645149231D-09 0.000000000000D+00
    1.863818750000D+04 1.050300598145D+00-9.313225746155D-10 5.000000000000D+00
   -9.239435058594D+03 3.270334243774D+00 2.793967723846D-09 0.000000000000D+00
 6 22  7 10  8 45  0.0-5.833618342876D-05-1.818989403546D-12 3.060000000000D+04
    8.511715332031D+03-4.000377655029D-01 2.793967723846D-09 0.000000000000D+00
    2.275631933594D+04-1.000336647034D+00-9.313225746155D-10-4.000000000000D+00
    7.794811035156D+03 3.351445198059D+00 9.313225746155D-10 0.000000000000D+00
 5 22  7 10  8 45  0.0 9.599421173334D-05 9.094947017729D-13 3.060000000000D+04
   -5.250671875000D+03-1.324140548706D+00 1.862645149231D-09 0.000000000000D+00
    1.204189257812D+04-2.685539245605D+00-0.000000000000D+00 1.000000000000D+00
    2.188162353516D+04 1.158727645874D+00-1.862645149231D-09 0.000000000000D+00
 9 22  7 10  8 45  0.0 6.498210132122D-05 1.818989403546D-12 3.060000000000D+04
    2.611418457031D+03-3.112840652466D+00-1.862645149231D-09 0.000000000000D+00
    1.127034570312D+04-5.568408966064D-02-9.313225746155D-10-2.000000000000D+00
   -2.270712109375D+04-3.924646377563D-01 1.862645149231D-09 0.000000000000D+00
18 22  7 10  8 45  0.0 1.230947673321D-04 9.094947017729D-13 3.060000000000D+04
   -1.492525732422D+04 1.561799049377D+00-4.656612873077D-09 0.000000000000D+00
    6.989551757812D+03-2.171256065369D+00-9.313225746155D-10-3.000000000000D+00
   -1.947975732422D+04-1.970672607422D+00 0.000000000000D+00 0.000000000000D+00
19 22  7 10  8 45  0.0-1.957686617970D-04-9.094947017729D-13 3.060000000000D+04
   -1.630870507812D+04 7.439384460449D-01-2.793967723846D-09 0.000000000000D+00
    1.831690625000D+04-6.545009613037D-01-1.862645149231D-09 3.000000000000D+00
   -7.007188476562D+03-3.446654319763D+00-9.313225746155D-10 0.000000000000D+00
20 22  7 10  8 45  0.0-7.430650293827D-05-0.000000000000D+00 3.060000000000D+04
   -7.155474121094D+03-8.415460586548D-01 9.313225746155D-10 0.000000000000D+00
    2.069115039062D+04 1.604263305664D+00-9.313225746155D-10 2.000000000000D+00
    1.312167675781D+04-2.985013008118D+00-9.313225746155D-10 0.000000000000D+00
 7 22  7 10  9 15  0.0 3.763660788536D-05 0.000000000000D+00 3.240000000000D+04
    1.581871240234D+04 3.853778839111D-01 1.862645149231D-09 0.000000000000D+00
    1.979937548828D+04 2.487688064575D-01-9.313225746155D-10 5.000000000000D+00
   -3.072048828125D+03 3.537831306458D+00 1.862645149231D-09 0.000000000000D+00
